IRIDIUM 5               
1 24795U 97020D   24213.93115953  .00005824  00000+0  54790-3 0  9999
2 24795  86.3898 230.6356 0119772 202.1370 157.4662 14.88331270437729
IRIDIUM 4               
1 24796U 97020E   24213.82502218  .00000815  00000+0  27267-3 0  9996
2 24796  86.3972 308.2280 0002266  97.8431 262.3023 14.36247436426477
IRIDIUM 16              
1 24841U 97030F   24213.91632939  .00000914  00000+0  29579-3 0  9990
2 24841  86.4070 339.8307 0003805  65.3251 294.8343 14.38006424420963
IRIDIUM 911             
1 24842U 97030G   24213.85257055  .00001298  00000+0  35333-3 0  9997
2 24842  86.4496 338.9443 0016445  86.8338 273.4746 14.46679543428757
IRIDIUM 17              
1 24870U 97034B   24213.91369470  .00000976  00000+0  32234-3 0  9993
2 24870  86.3976   9.4020 0002200  47.5107 312.6276 14.37095790417571
